CCSDS_OMM_VERS = 2.0
CREATION_DATE  = 
ORIGINATOR     = 

OBJECT_NAME    = STARLINK-36520
OBJECT_ID      = 2026-008X
CENTER_NAME    = EARTH
REF_FRAME      = TEME
TIME_SYSTEM    = UTC
MEAN_ELEMENT_THEORY = SGP/SGP4

EPOCH          = 2026-02-06T20:00:01.999008
MEAN_MOTION    = 15.55945844
ECCENTRICITY   = .0001403
INCLINATION    = 43.0003
RA_OF_ASC_NODE = 21.0375
ARG_OF_PERICENTER = 264.1794
MEAN_ANOMALY   = 154.0716

EPHEMERIS_TYPE = 0
CLASSIFICATION_TYPE = U
NORAD_CAT_ID   = 67466
ELEMENT_SET_NO = 999
REV_AT_EPOCH   = 483
BSTAR          = -.32056E-1
MEAN_MOTION_DOT = -.2040544E-1
MEAN_MOTION_DDOT = 0

CCSDS_OMM_VERS = 2.0
CREATION_DATE  = 
ORIGINATOR     = 

OBJECT_NAME    = STARLINK-36425
OBJECT_ID      = 2026-008Y
CENTER_NAME    = EARTH
REF_FRAME      = TEME
TIME_SYSTEM    = UTC
MEAN_ELEMENT_THEORY = SGP/SGP4

EPOCH          = 2026-02-06T20:00:01.999008
MEAN_MOTION    = 15.50621319
ECCENTRICITY   = .0001192
INCLINATION    = 43.0000
RA_OF_ASC_NODE = 21.3970
ARG_OF_PERICENTER = 226.9030
MEAN_ANOMALY   = 45.4017

EPHEMERIS_TYPE = 0
CLASSIFICATION_TYPE = U
NORAD_CAT_ID   = 67467
ELEMENT_SET_NO = 999
REV_AT_EPOCH   = 483
BSTAR          = -.13793E-2
MEAN_MOTION_DOT = -.80549E-3
MEAN_MOTION_DDOT = 0

CCSDS_OMM_VERS = 2.0
CREATION_DATE  = 
ORIGINATOR     = 

OBJECT_NAME    = STARLINK-36414
OBJECT_ID      = 2026-008Z
CENTER_NAME    = EARTH
REF_FRAME      = TEME
TIME_SYSTEM    = UTC
MEAN_ELEMENT_THEORY = SGP/SGP4

EPOCH          = 2026-02-06T20:00:01.999008
MEAN_MOTION    = 15.54169316
ECCENTRICITY   = .0001113
INCLINATION    = 43.0005
RA_OF_ASC_NODE = 20.8319
ARG_OF_PERICENTER = 268.1334
MEAN_ANOMALY   = 231.9516

EPHEMERIS_TYPE = 0
CLASSIFICATION_TYPE = U
NORAD_CAT_ID   = 67468
ELEMENT_SET_NO = 999
REV_AT_EPOCH   = 483
BSTAR          = -.34191E-1
MEAN_MOTION_DOT = -.2037492E-1
MEAN_MOTION_DDOT = 0

CCSDS_OMM_VERS = 2.0
CREATION_DATE  = 
ORIGINATOR     = 

OBJECT_NAME    = STARLINK-36441
OBJECT_ID      = 2026-008AA
CENTER_NAME    = EARTH
REF_FRAME      = TEME
TIME_SYSTEM    = UTC
MEAN_ELEMENT_THEORY = SGP/SGP4

EPOCH          = 2026-02-06T20:00:01.999008
MEAN_MOTION    = 15.50626620
ECCENTRICITY   = .0001721
INCLINATION    = 43.0004
RA_OF_ASC_NODE = 20.9629
ARG_OF_PERICENTER = 261.3635
MEAN_ANOMALY   = 184.3811

EPHEMERIS_TYPE = 0
CLASSIFICATION_TYPE = U
NORAD_CAT_ID   = 67469
ELEMENT_SET_NO = 999
REV_AT_EPOCH   = 483
BSTAR          = -.22725E-2
MEAN_MOTION_DOT = -.131667E-2
MEAN_MOTION_DDOT = 0

CCSDS_OMM_VERS = 2.0
CREATION_DATE  = 
ORIGINATOR     = 

OBJECT_NAME    = STARLINK-36454
OBJECT_ID      = 2026-008AB
CENTER_NAME    = EARTH
REF_FRAME      = TEME
TIME_SYSTEM    = UTC
MEAN_ELEMENT_THEORY = SGP/SGP4

EPOCH          = 2026-02-06T20:00:01.999008
MEAN_MOTION    = 15.52765954
ECCENTRICITY   = .0000972
INCLINATION    = 42.9998
RA_OF_ASC_NODE = 20.8803
ARG_OF_PERICENTER = 256.5710
MEAN_ANOMALY   = 222.9551

EPHEMERIS_TYPE = 0
CLASSIFICATION_TYPE = U
NORAD_CAT_ID   = 67470
ELEMENT_SET_NO = 999
REV_AT_EPOCH   = 483
BSTAR          = -.39114E-1
MEAN_MOTION_DOT = -.2193122E-1
MEAN_MOTION_DDOT = 0

CCSDS_OMM_VERS = 2.0
CREATION_DATE  = 
ORIGINATOR     = 

OBJECT_NAME    = STARLINK-36334
OBJECT_ID      = 2026-008AC
CENTER_NAME    = EARTH
REF_FRAME      = TEME
TIME_SYSTEM    = UTC
MEAN_ELEMENT_THEORY = SGP/SGP4

EPOCH          = 2026-02-06T20:00:01.999008
MEAN_MOTION    = 15.56204406
ECCENTRICITY   = .0000893
INCLINATION    = 43.0000
RA_OF_ASC_NODE = 20.7451
ARG_OF_PERICENTER = 261.9018
MEAN_ANOMALY   = 272.2127

EPHEMERIS_TYPE = 0
CLASSIFICATION_TYPE = U
NORAD_CAT_ID   = 67471
ELEMENT_SET_NO = 999
REV_AT_EPOCH   = 483
BSTAR          = -.32079E-1
MEAN_MOTION_DOT = -.2059288E-1
MEAN_MOTION_DDOT = 0

CCSDS_OMM_VERS = 2.0
CREATION_DATE  = 
ORIGINATOR     = 

OBJECT_NAME    = STARLINK-36269
OBJECT_ID      = 2026-008AD
CENTER_NAME    = EARTH
REF_FRAME      = TEME
TIME_SYSTEM    = UTC
MEAN_ELEMENT_THEORY = SGP/SGP4

EPOCH          = 2026-02-06T20:00:01.999008
MEAN_MOTION    = 15.54212565
ECCENTRICITY   = .0001145
INCLINATION    = 43.0000
RA_OF_ASC_NODE = 20.8084
ARG_OF_PERICENTER = 272.7724
MEAN_ANOMALY   = 235.5721

EPHEMERIS_TYPE = 0
CLASSIFICATION_TYPE = U
NORAD_CAT_ID   = 67472
ELEMENT_SET_NO = 999
REV_AT_EPOCH   = 485
BSTAR          = -.34346E-1
MEAN_MOTION_DOT = -.2048681E-1
MEAN_MOTION_DDOT = 0

CCSDS_OMM_VERS = 2.0
CREATION_DATE  = 
ORIGINATOR     = 

OBJECT_NAME    = STARLINK-36408
OBJECT_ID      = 2026-008AE
CENTER_NAME    = EARTH
REF_FRAME      = TEME
TIME_SYSTEM    = UTC
MEAN_ELEMENT_THEORY = SGP/SGP4

EPOCH          = 2026-02-06T20:00:01.999008
MEAN_MOTION    = 15.51365288
ECCENTRICITY   = .0001239
INCLINATION    = 43.0004
RA_OF_ASC_NODE = 20.9098
ARG_OF_PERICENTER = 266.9388
MEAN_ANOMALY   = 200.1075

EPHEMERIS_TYPE = 0
CLASSIFICATION_TYPE = U
NORAD_CAT_ID   = 67473
ELEMENT_SET_NO = 999
REV_AT_EPOCH   = 485
BSTAR          = -.20677E-1
MEAN_MOTION_DOT = -.1125689E-1
MEAN_MOTION_DDOT = 0

CCSDS_OMM_VERS = 2.0
CREATION_DATE  = 
ORIGINATOR     = 

OBJECT_NAME    = ALSAT-3A
OBJECT_ID      = 2026-009A
CENTER_NAME    = EARTH
REF_FRAME      = TEME
TIME_SYSTEM    = UTC
MEAN_ELEMENT_THEORY = SGP/SGP4

EPOCH          = 2026-02-06T19:23:51.814176
MEAN_MOTION    = 15.23420425
ECCENTRICITY   = .0012337
INCLINATION    = 97.4678
RA_OF_ASC_NODE = 112.4766
ARG_OF_PERICENTER = 176.4281
MEAN_ANOMALY   = 183.7046

EPHEMERIS_TYPE = 0
CLASSIFICATION_TYPE = U
NORAD_CAT_ID   = 67474
ELEMENT_SET_NO = 999
REV_AT_EPOCH   = 342
BSTAR          = .38197E-3
MEAN_MOTION_DOT = .9044E-4
MEAN_MOTION_DDOT = 0

CCSDS_OMM_VERS = 2.0
CREATION_DATE  = 
ORIGINATOR     = 

OBJECT_NAME    = CZ-2C R/B
OBJECT_ID      = 2026-009B
CENTER_NAME    = EARTH
REF_FRAME      = TEME
TIME_SYSTEM    = UTC
MEAN_ELEMENT_THEORY = SGP/SGP4

EPOCH          = 2026-02-06T18:44:57.185952
MEAN_MOTION    = 15.03114853
ECCENTRICITY   = .0100346
INCLINATION    = 97.1758
RA_OF_ASC_NODE = 110.6008
ARG_OF_PERICENTER = 144.7544
MEAN_ANOMALY   = 216.0374

EPHEMERIS_TYPE = 0
CLASSIFICATION_TYPE = U
NORAD_CAT_ID   = 67475
ELEMENT_SET_NO = 999
REV_AT_EPOCH   = 343
BSTAR          = .29036E-3
MEAN_MOTION_DOT = .4315E-4
MEAN_MOTION_DDOT = 0

CCSDS_OMM_VERS = 2.0
CREATION_DATE  = 
ORIGINATOR     = 

OBJECT_NAME    = TIANQI-37
OBJECT_ID      = 2026-010A
CENTER_NAME    = EARTH
REF_FRAME      = TEME
TIME_SYSTEM    = UTC
MEAN_ELEMENT_THEORY = SGP/SGP4

EPOCH          = 2026-02-06T19:02:21.190848
MEAN_MOTION    = 14.13527652
ECCENTRICITY   = .0012944
INCLINATION    = 44.9829
RA_OF_ASC_NODE = 303.4158
ARG_OF_PERICENTER = 62.6259
MEAN_ANOMALY   = 297.5895

EPHEMERIS_TYPE = 0
CLASSIFICATION_TYPE = U
NORAD_CAT_ID   = 67476
ELEMENT_SET_NO = 999
REV_AT_EPOCH   = 311
BSTAR          = .24829E-3
MEAN_MOTION_DOT = .338E-5
MEAN_MOTION_DDOT = 0

CCSDS_OMM_VERS = 2.0
CREATION_DATE  = 
ORIGINATOR     = 

OBJECT_NAME    = TIANQI-38
OBJECT_ID      = 2026-010B
CENTER_NAME    = EARTH
REF_FRAME      = TEME
TIME_SYSTEM    = UTC
MEAN_ELEMENT_THEORY = SGP/SGP4

EPOCH          = 2026-02-06T18:56:32.991072
MEAN_MOTION    = 14.13904863
ECCENTRICITY   = .0011773
INCLINATION    = 44.9791
RA_OF_ASC_NODE = 303.3857
ARG_OF_PERICENTER = 67.9408
MEAN_ANOMALY   = 292.2680

EPHEMERIS_TYPE = 0
CLASSIFICATION_TYPE = U
NORAD_CAT_ID   = 67477
ELEMENT_SET_NO = 999
REV_AT_EPOCH   = 311
BSTAR          = .26856E-3
MEAN_MOTION_DOT = .38E-5
MEAN_MOTION_DDOT = 0

