STARLINK-36520          
1 67466U 26008X   26037.83335647 -.02040544  00000+0 -32056-1 0  9999
2 67466  43.0003  21.0375 0001403 264.1794 154.0716 15.55945844  4839
STARLINK-36425          
1 67467U 26008Y   26037.83335647 -.00080549  00000+0 -13793-2 0  9995
2 67467  43.0000  21.3970 0001192 226.9030  45.4017 15.50621319  4835
STARLINK-36414          
1 67468U 26008Z   26037.83335647 -.02037492  00000+0 -34191-1 0  9991
2 67468  43.0005  20.8319 0001113 268.1334 231.9516 15.54169316  4834
STARLINK-36441          
1 67469U 26008AA  26037.83335647 -.00131667  00000+0 -22725-2 0  9990
2 67469  43.0004  20.9629 0001721 261.3635 184.3811 15.50626620  4834
STARLINK-36454          
1 67470U 26008AB  26037.83335647 -.02193122  00000+0 -39114-1 0  9997
2 67470  42.9998  20.8803 0000972 256.5710 222.9551 15.52765954  4832
STARLINK-36334          
1 67471U 26008AC  26037.83335647 -.02059288  00000+0 -32079-1 0  9995
2 67471  43.0000  20.7451 0000893 261.9018 272.2127 15.56204406  4831
STARLINK-36269          
1 67472U 26008AD  26037.83335647 -.02048681  00000+0 -34346-1 0  9990
2 67472  43.0000  20.8084 0001145 272.7724 235.5721 15.54212565  4857
STARLINK-36408          
1 67473U 26008AE  26037.83335647 -.01125689  00000+0 -20677-1 0  9996
2 67473  43.0004  20.9098 0001239 266.9388 200.1075 15.51365288  4851
ALSAT-3A                
1 67474U 26009A   26037.80823859  .00009044  00000+0  38197-3 0  9993
2 67474  97.4678 112.4766 0012337 176.4281 183.7046 15.23420425  3429
CZ-2C R/B               
1 67475U 26009B   26037.78121743  .00004315  00000+0  29036-3 0  9992
2 67475  97.1758 110.6008 0100346 144.7544 216.0374 15.03114853  3431
TIANQI-37               
1 67476U 26010A   26037.79330082  .00000338  00000+0  24829-3 0  9990
2 67476  44.9829 303.4158 0012944  62.6259 297.5895 14.13527652  3118
TIANQI-38               
1 67477U 26010B   26037.78927073  .00000380  00000+0  26856-3 0  9991
2 67477  44.9791 303.3857 0011773  67.9408 292.2680 14.13904863  3112
